     2              NAVIGATION DATA                         RINEX VERSION / TYPE
CCRINEXN V1.6.0 UX  CDDIS               26-JUL-23 07:09     PGM / RUN BY / DATE 
IGS BROADCAST EPHEMERIS FILE                                COMMENT             
    0.1490D-07  0.2235D-07 -0.5960D-07 -0.1192D-06          ION ALPHA           
    0.1147D+06  0.1475D+06 -0.6554D+05 -0.3277D+06          ION BETA            
   -0.186264514923D-08-0.266453525910D-14   503808     2272 DELTA-UTC: A0,A1,T,W
    18                                                      LEAP SECONDS        
                                                            END OF HEADER       
32 23  7 26  0  0  0.0-0.528357457370D-03-0.738964445190D-11 0.000000000000D+00
    0.260000000000D+02-0.301875000000D+02 0.489913263997D-08-0.257744663304D+01
   -0.154785811901D-05 0.695441302378D-02 0.680983066559D-05 0.515376651573D+04
    0.259200000000D+06 0.162050127983D-06-0.294868847792D+01-0.726431608200D-07
    0.960348144435D+00 0.246062500000D+03-0.220403876094D+01-0.810212320024D-08
    0.414302971667D-10 0.100000000000D+01 0.227200000000D+04 0.000000000000D+00
    0.200000000000D+01 0.000000000000D+00 0.465661287308D-09 0.260000000000D+02
    0.252058000000D+06 0.400000000000D+01 0.000000000000D+00 0.000000000000D+00
 6 23  7 26  1 59 44.0 0.574177596718D-03-0.409272615798D-11 0.000000000000D+00
    0.300000000000D+01-0.479687500000D+02 0.358622080906D-08 0.213997686873D+01
   -0.237300992012D-05 0.268341205083D-02 0.758096575737D-05 0.515370983314D+04
    0.266384000000D+06-0.670552253723D-07 0.125906858606D+01 0.428408384323D-07
    0.989203305317D+00 0.248625000000D+03-0.761981359514D+00-0.761638868173D-08
    0.142863093678D-11 0.100000000000D+01 0.227200000000D+04 0.000000000000D+00
    0.200000000000D+01 0.000000000000D+00 0.372529029846D-08 0.300000000000D+01
    0.259218000000D+06 0.400000000000D+01 0.000000000000D+00 0.000000000000D+00
 7 23  7 26  1 59 44.0 0.114413909614D-03-0.110276232590D-10 0.000000000000D+00
    0.490000000000D+02-0.484375000000D+01 0.497985028790D-08 0.127437193948D+01
   -0.987201929092D-07 0.175071313279D-01 0.104811042547D-04 0.515373829842D+04
    0.266384000000D+06-0.340864062309D-06-0.189043135919D+01 0.987201929092D-07
    0.950061684237D+00 0.178906250000D+03-0.217942844997D+01-0.837070581635D-08
   -0.326442169055D-09 0.100000000000D+01 0.227200000000D+04 0.000000000000D+00
    0.200000000000D+01 0.000000000000D+00-0.111758708954D-07 0.490000000000D+02
    0.265368000000D+06 0.400000000000D+01 0.000000000000D+00 0.000000000000D+00
10 23  7 26  1 59 44.0-0.466532073915D-04-0.159161572810D-11 0.000000000000D+00
    0.000000000000D+00-0.106250000000D+02 0.413695803519D-08-0.143776874735D+00
   -0.452622771263D-06 0.862776138820D-02 0.775791704655D-05 0.515368764687D+04
    0.266384000000D+06 0.540167093277D-07 0.229516468296D+01 0.173225998878D-06
    0.979594438052D+00 0.242687500000D+03-0.244055777496D+01-0.800676208521D-08
    0.464662212189D-09 0.100000000000D+01 0.227200000000D+04 0.000000000000D+00
    0.200000000000D+01 0.000000000000D+00 0.232830643654D-08 0.000000000000D+00
    0.260503000000D+06 0.400000000000D+01 0.000000000000D+00 0.000000000000D+00
15 23  7 26  1 59 44.0 0.614984892309D-04 0.352429196937D-11 0.000000000000D+00
    0.330000000000D+02-0.328750000000D+02 0.540879672667D-08-0.313885922334D+01
   -0.197626650333D-05 0.151724556927D-01 0.619143247604D-05 0.515375525474D+04
    0.266384000000D+06 0.216066837311D-06-0.308203070032D+01-0.238418579102D-06
    0.933196541416D+00 0.244656250000D+03 0.121911448661D+01-0.825784397235D-08
    0.125362364703D-09 0.100000000000D+01 0.227200000000D+04 0.000000000000D+00
    0.200000000000D+01 0.000000000000D+00-0.107102096081D-07 0.330000000000D+02
    0.263886000000D+06 0.400000000000D+01 0.000000000000D+00 0.000000000000D+00
20 23  7 26  1 59 44.0 0.420691445470D-03-0.204636307899D-11 0.000000000000D+00
    0.130000000000D+02-0.175937500000D+02 0.458304804520D-08 0.279560633238D+01
   -0.750645995140D-06 0.404557771981D-02 0.751949846744D-05 0.515359136581D+04
    0.266384000000D+06-0.707805156708D-07 0.212694638676D+01-0.987201929092D-07
    0.949320808394D+00 0.226406250000D+03-0.287373376938D+01-0.810998067039D-08
    0.403588239642D-09 0.100000000000D+01 0.227200000000D+04 0.000000000000D+00
    0.200000000000D+01 0.000000000000D+00-0.838190317154D-08 0.130000000000D+02
    0.264588000000D+06 0.400000000000D+01 0.000000000000D+00 0.000000000000D+00
31 23  7 26  1 59 44.0-0.220720656216D-03-0.682121026330D-12 0.000000000000D+00
    0.200000000000D+01 0.174375000000D+02 0.482127225391D-08 0.403592143804D+00
    0.105984508991D-05 0.103466688888D-01 0.978074967861D-05 0.515359876633D+04
    0.266384000000D+06 0.335276126862D-07-0.187018023395D+01 0.912696123123D-07
    0.954123590392D+00 0.185781250000D+03 0.556355316146D+00-0.819534136886D-08
   -0.318941856637D-09 0.100000000000D+01 0.227200000000D+04 0.000000000000D+00
    0.200000000000D+01 0.000000000000D+00-0.135041773319D-07 0.200000000000D+01
    0.264493000000D+06 0.400000000000D+01 0.000000000000D+00 0.000000000000D+00
 1 23  7 26  2  0  0.0 0.171271618456D-03-0.170530256582D-11 0.000000000000D+00
    0.270000000000D+02-0.591875000000D+02 0.354764777377D-08 0.194204745681D+01
   -0.316835939884D-05 0.129312019562D-01 0.819936394691D-05 0.515364552879D+04
    0.266400000000D+06-0.143423676491D-06 0.126740388366D+01-0.234693288803D-06
    0.990008711940D+00 0.238000000000D+03 0.988348276513D+00-0.773103631441D-08
   -0.642883921553D-11 0.100000000000D+01 0.227200000000D+04 0.000000000000D+00
    0.200000000000D+01 0.630000000000D+02 0.465661287308D-08 0.270000000000D+02
    0.259273000000D+06 0.400000000000D+01 0.000000000000D+00 0.000000000000D+00
 2 23  7 26  2  0  0.0-0.572358258069D-03 0.397903932026D-11 0.000000000000D+00
    0.890000000000D+02-0.484687500000D+02 0.412052877942D-08-0.166411337680D+01
   -0.211223959923D-05 0.159293584293D-01 0.788643956184D-05 0.515355206680D+04
    0.266400000000D+06-0.223517417908D-07 0.116746453998D+01 0.406056642532D-06
    0.967425840118D+00 0.230625000000D+03-0.136474848611D+01-0.801926260591D-08
   -0.385730352932D-10 0.100000000000D+01 0.227200000000D+04 0.000000000000D+00
    0.200000000000D+01 0.000000000000D+00-0.176951289177D-07 0.890000000000D+02
    0.259274000000D+06 0.400000000000D+01 0.000000000000D+00 0.000000000000D+00
 3 23  7 26  2  0  0.0-0.216717831790D-03 0.164845914696D-10 0.000000000000D+00
    0.590000000000D+02-0.161875000000D+02 0.407516974718D-08 0.758548925065D+00
   -0.105425715446D-05 0.505369831808D-02 0.802613794804D-05 0.515362862778D+04
    0.266400000000D+06-0.223517417908D-07 0.229779606589D+01 0.335276126862D-07
    0.979872843066D+00 0.233687500000D+03 0.107381474195D+01-0.791568686299D-08
    0.402159608705D-09 0.100000000000D+01 0.227200000000D+04 0.000000000000D+00
    0.200000000000D+01 0.000000000000D+00 0.186264514923D-08 0.590000000000D+02
    0.259267000000D+06 0.400000000000D+01 0.000000000000D+00 0.000000000000D+00
 4 23  7 26  2  0  0.0 0.106448307633D-03 0.110276232590D-10 0.000000000000D+00
    0.194000000000D+03-0.288437500000D+02 0.482341520032D-08-0.256270162864D+01
   -0.149384140968D-05 0.245285278652D-02 0.717304646969D-05 0.515363602829D+04
    0.266400000000D+06-0.223517417908D-07-0.290502170890D+01-0.260770320892D-07
    0.963410222154D+00 0.248031250000D+03-0.301010572438D+01-0.806962184643D-08
    0.742888087128D-10 0.100000000000D+01 0.227200000000D+04 0.000000000000D+00
    0.200000000000D+01 0.000000000000D+00-0.465661287308D-08 0.706000000000D+03
    0.261853000000D+06 0.400000000000D+01 0.000000000000D+00 0.000000000000D+00
 5 23  7 26  2  0  0.0-0.136310700327D-03-0.147792889038D-11 0.000000000000D+00
    0.930000000000D+02-0.136250000000D+02 0.428624996809D-08-0.177623683119D+01
   -0.581145286560D-06 0.605983799323D-02 0.715255737305D-05 0.515370568085D+04
    0.266400000000D+06 0.745058059692D-07 0.225044328020D+01 0.931322574616D-08
    0.966868967185D+00 0.236968750000D+03 0.119107906017D+01-0.794997400547D-08
    0.429660754238D-09 0.100000000000D+01 0.227200000000D+04 0.000000000000D+00
    0.200000000000D+01 0.000000000000D+00-0.111758708954D-07 0.930000000000D+02
    0.259218000000D+06 0.400000000000D+01 0.000000000000D+00 0.000000000000D+00
 7 23  7 26  2  0  0.0 0.114415772259D-03-0.110276232590D-10 0.000000000000D+00
    0.960000000000D+02-0.484375000000D+01 0.497985028790D-08 0.127670563029D+01
   -0.987201929092D-07 0.175071331905D-01 0.104811042547D-04 0.515373830223D+04
    0.266400000000D+06-0.340864062309D-06-0.189043149670D+01 0.987201929092D-07
    0.950061706181D+00 0.178906250000D+03-0.217942848361D+01-0.837070581635D-08
   -0.326442169055D-09 0.100000000000D+01 0.227200000000D+04 0.000000000000D+00
    0.200000000000D+01 0.000000000000D+00-0.111758708954D-07 0.960000000000D+02
    0.259218000000D+06 0.400000000000D+01 0.000000000000D+00 0.000000000000D+00
 8 23  7 26  2  0  0.0-0.134050380439D-03-0.193267624127D-11 0.000000000000D+00
    0.240000000000D+02 0.671875000000D+01 0.463055002385D-08-0.215983576076D+01
    0.415369868278D-06 0.850923976395D-02 0.407919287682D-05 0.515372663498D+04
    0.266400000000D+06-0.484287738800D-07 0.173804027567D+00-0.521540641785D-07
    0.958093692585D+00 0.300593750000D+03 0.271504404380D+00-0.827141596625D-08
   -0.107147320259D-09 0.100000000000D+01 0.227200000000D+04 0.000000000000D+00
    0.200000000000D+01 0.000000000000D+00 0.512227416039D-08 0.240000000000D+02
    0.259230000000D+06 0.400000000000D+01 0.000000000000D+00 0.000000000000D+00
